[{"OBJECT_NAME":"YAOGAN-43 01F","OBJECT_ID":"2024-148F","EPOCH":"2026-03-10T00:23:08.877408","MEAN_MOTION":15.29824616,"ECCENTRICITY":0.00057048,"INCLINATION":34.9925,"RA_OF_ASC_NODE":59.8891,"ARG_OF_PERICENTER":18.4862,"MEAN_ANOMALY":341.6062,"EPHEMERIS_TYPE":0,"CLASSIFICATION_TYPE":"U","NORAD_CAT_ID":60463,"ELEMENT_SET_NO":999,"REV_AT_EPOCH":8707,"BSTAR":0.00058388219,"MEAN_MOTION_DOT":0.00017308,"MEAN_MOTION_DDOT":0},{"OBJECT_NAME":"STARLINK-34801","OBJECT_ID":"2025-235U","EPOCH":"2026-03-09T22:00:05.406336","MEAN_MOTION":15.30185572,"ECCENTRICITY":0.00010487,"INCLINATION":53.1567,"RA_OF_ASC_NODE":244.3977,"ARG_OF_PERICENTER":57.3217,"MEAN_ANOMALY":302.7885,"EPHEMERIS_TYPE":0,"CLASSIFICATION_TYPE":"U","NORAD_CAT_ID":66076,"ELEMENT_SET_NO":999,"REV_AT_EPOCH":2295,"BSTAR":0.0012371491,"MEAN_MOTION_DOT":0.00036445,"MEAN_MOTION_DDOT":0}]
